STARLINK-36586          
1 67548U 26014S   26036.25003472 -.00119543  00000+0 -63010-3 0  9990
2 67548  97.2797 279.5374 0001652 108.4238 261.9062 15.80877844  3472
STARLINK-36564          
1 67549U 26014T   26036.25003472 -.00145122  00000+0 -76713-3 0  9997
2 67549  97.2797 279.5408 0001408  90.8164 286.2658 15.80884075  3411
STARLINK-36563          
1 67550U 26014U   26036.25003472 -.00137482  00000+0 -72626-3 0  9998
2 67550  97.2762 279.5415 0001479  94.4994 289.3301 15.80878314  3476
STARLINK-36566          
1 67551U 26014V   26036.25003472 -.00110887  00000+0 -58419-3 0  9993
2 67551  97.2788 279.5444 0001206 100.0903 289.8985 15.80866743  3475
STARLINK-36567          
1 67552U 26014W   26036.25003472 -.00952552  00000+0 -54546-2 0  9993
2 67552  97.2755 279.5463 0001467  89.6695 306.5384 15.81161618  3470
STARLINK-36569          
1 67553U 26014X   26036.25003472  .00047966  00000+0  25011-3 0  9992
2 67553  97.2753 279.5502 0001497  96.0739 308.4946 15.80786257  3473
STARLINK-36395          
1 67554U 26014Y   26036.25003472 -.00467141  00000+0 -25452-2 0  9994
2 67554  97.2755 279.5594 0001713  75.8438 350.8917 15.81031078  3473
STARLINK-36559          
1 67555U 26014Z   26036.25003472 -.00828152  00000+0 -46846-2 0  9998
2 67555  97.2757 279.5565 0001570  84.3473 335.6005 15.81110865  3470
MR-1                    
1 67556U 26015A   26036.23942198  .00000088  00000+0  11486-3 0  9996
2 67556  88.9986 281.9598 0005067  96.7794 263.3935 13.52685979  1873
MR-2                    
1 67557U 26015B   26036.16569888  .00000040  00000+0  41974-4 0  9994
2 67557  88.9985 281.9675 0005142  95.9473 264.2265 13.52660734  1865
ELECTRON R/B            
1 67558U 26015C   26036.09662575  .01450120 -70741-6  12878-2 0  9999
2 67558  89.0014 281.5984 0537138 220.4211 135.5949 15.07936486  2042
ELECTRON KICK STAGE R/B 
1 67559U 26015D   26036.13416753  .00072287  36294-6  12291-2 0  9996
2 67559  89.0513 281.7440 0533589 287.7038  66.6627 14.66956483  2012
