CCSDS_OMM_VERS = 2.0
CREATION_DATE  = 
ORIGINATOR     = 

OBJECT_NAME    = STARLINK-36586
OBJECT_ID      = 2026-014S
CENTER_NAME    = EARTH
REF_FRAME      = TEME
TIME_SYSTEM    = UTC
MEAN_ELEMENT_THEORY = SGP/SGP4

EPOCH          = 2026-02-05T06:00:02.999808
MEAN_MOTION    = 15.80877844
ECCENTRICITY   = .00016525
INCLINATION    = 97.2797
RA_OF_ASC_NODE = 279.5374
ARG_OF_PERICENTER = 108.4238
MEAN_ANOMALY   = 261.9062

EPHEMERIS_TYPE = 0
CLASSIFICATION_TYPE = U
NORAD_CAT_ID   = 67548
ELEMENT_SET_NO = 999
REV_AT_EPOCH   = 347
BSTAR          = -.63010269E-3
MEAN_MOTION_DOT = -.119543E-2
MEAN_MOTION_DDOT = 0

CCSDS_OMM_VERS = 2.0
CREATION_DATE  = 
ORIGINATOR     = 

OBJECT_NAME    = STARLINK-36564
OBJECT_ID      = 2026-014T
CENTER_NAME    = EARTH
REF_FRAME      = TEME
TIME_SYSTEM    = UTC
MEAN_ELEMENT_THEORY = SGP/SGP4

EPOCH          = 2026-02-05T06:00:02.999808
MEAN_MOTION    = 15.80884075
ECCENTRICITY   = .00014084
INCLINATION    = 97.2797
RA_OF_ASC_NODE = 279.5408
ARG_OF_PERICENTER = 90.8164
MEAN_ANOMALY   = 286.2658

EPHEMERIS_TYPE = 0
CLASSIFICATION_TYPE = U
NORAD_CAT_ID   = 67549
ELEMENT_SET_NO = 999
REV_AT_EPOCH   = 341
BSTAR          = -.76713011E-3
MEAN_MOTION_DOT = -.145122E-2
MEAN_MOTION_DDOT = 0

CCSDS_OMM_VERS = 2.0
CREATION_DATE  = 
ORIGINATOR     = 

OBJECT_NAME    = STARLINK-36563
OBJECT_ID      = 2026-014U
CENTER_NAME    = EARTH
REF_FRAME      = TEME
TIME_SYSTEM    = UTC
MEAN_ELEMENT_THEORY = SGP/SGP4

EPOCH          = 2026-02-05T06:00:02.999808
MEAN_MOTION    = 15.80878314
ECCENTRICITY   = .00014799
INCLINATION    = 97.2762
RA_OF_ASC_NODE = 279.5415
ARG_OF_PERICENTER = 94.4994
MEAN_ANOMALY   = 289.3301

EPHEMERIS_TYPE = 0
CLASSIFICATION_TYPE = U
NORAD_CAT_ID   = 67550
ELEMENT_SET_NO = 999
REV_AT_EPOCH   = 347
BSTAR          = -.72625733E-3
MEAN_MOTION_DOT = -.137482E-2
MEAN_MOTION_DDOT = 0

CCSDS_OMM_VERS = 2.0
CREATION_DATE  = 
ORIGINATOR     = 

OBJECT_NAME    = STARLINK-36566
OBJECT_ID      = 2026-014V
CENTER_NAME    = EARTH
REF_FRAME      = TEME
TIME_SYSTEM    = UTC
MEAN_ELEMENT_THEORY = SGP/SGP4

EPOCH          = 2026-02-05T06:00:02.999808
MEAN_MOTION    = 15.80866743
ECCENTRICITY   = .00012064
INCLINATION    = 97.2788
RA_OF_ASC_NODE = 279.5444
ARG_OF_PERICENTER = 100.0903
MEAN_ANOMALY   = 289.8985

EPHEMERIS_TYPE = 0
CLASSIFICATION_TYPE = U
NORAD_CAT_ID   = 67551
ELEMENT_SET_NO = 999
REV_AT_EPOCH   = 347
BSTAR          = -.58418692E-3
MEAN_MOTION_DOT = -.110887E-2
MEAN_MOTION_DDOT = 0

CCSDS_OMM_VERS = 2.0
CREATION_DATE  = 
ORIGINATOR     = 

OBJECT_NAME    = STARLINK-36567
OBJECT_ID      = 2026-014W
CENTER_NAME    = EARTH
REF_FRAME      = TEME
TIME_SYSTEM    = UTC
MEAN_ELEMENT_THEORY = SGP/SGP4

EPOCH          = 2026-02-05T06:00:02.999808
MEAN_MOTION    = 15.81161618
ECCENTRICITY   = .00014673
INCLINATION    = 97.2755
RA_OF_ASC_NODE = 279.5463
ARG_OF_PERICENTER = 89.6695
MEAN_ANOMALY   = 306.5384

EPHEMERIS_TYPE = 0
CLASSIFICATION_TYPE = U
NORAD_CAT_ID   = 67552
ELEMENT_SET_NO = 999
REV_AT_EPOCH   = 347
BSTAR          = -.54546034E-2
MEAN_MOTION_DOT = -.952552E-2
MEAN_MOTION_DDOT = 0

CCSDS_OMM_VERS = 2.0
CREATION_DATE  = 
ORIGINATOR     = 

OBJECT_NAME    = STARLINK-36569
OBJECT_ID      = 2026-014X
CENTER_NAME    = EARTH
REF_FRAME      = TEME
TIME_SYSTEM    = UTC
MEAN_ELEMENT_THEORY = SGP/SGP4

EPOCH          = 2026-02-05T06:00:02.999808
MEAN_MOTION    = 15.80786257
ECCENTRICITY   = .00014978
INCLINATION    = 97.2753
RA_OF_ASC_NODE = 279.5502
ARG_OF_PERICENTER = 96.0739
MEAN_ANOMALY   = 308.4946

EPHEMERIS_TYPE = 0
CLASSIFICATION_TYPE = U
NORAD_CAT_ID   = 67553
ELEMENT_SET_NO = 999
REV_AT_EPOCH   = 347
BSTAR          = .25011265E-3
MEAN_MOTION_DOT = .47966E-3
MEAN_MOTION_DDOT = 0

CCSDS_OMM_VERS = 2.0
CREATION_DATE  = 
ORIGINATOR     = 

OBJECT_NAME    = STARLINK-36395
OBJECT_ID      = 2026-014Y
CENTER_NAME    = EARTH
REF_FRAME      = TEME
TIME_SYSTEM    = UTC
MEAN_ELEMENT_THEORY = SGP/SGP4

EPOCH          = 2026-02-05T06:00:02.999808
MEAN_MOTION    = 15.81031078
ECCENTRICITY   = .00017132
INCLINATION    = 97.2755
RA_OF_ASC_NODE = 279.5594
ARG_OF_PERICENTER = 75.8438
MEAN_ANOMALY   = 350.8917

EPHEMERIS_TYPE = 0
CLASSIFICATION_TYPE = U
NORAD_CAT_ID   = 67554
ELEMENT_SET_NO = 999
REV_AT_EPOCH   = 347
BSTAR          = -.25452024E-2
MEAN_MOTION_DOT = -.467141E-2
MEAN_MOTION_DDOT = 0

CCSDS_OMM_VERS = 2.0
CREATION_DATE  = 
ORIGINATOR     = 

OBJECT_NAME    = STARLINK-36559
OBJECT_ID      = 2026-014Z
CENTER_NAME    = EARTH
REF_FRAME      = TEME
TIME_SYSTEM    = UTC
MEAN_ELEMENT_THEORY = SGP/SGP4

EPOCH          = 2026-02-05T06:00:02.999808
MEAN_MOTION    = 15.81110865
ECCENTRICITY   = .00015706
INCLINATION    = 97.2757
RA_OF_ASC_NODE = 279.5565
ARG_OF_PERICENTER = 84.3473
MEAN_ANOMALY   = 335.6005

EPHEMERIS_TYPE = 0
CLASSIFICATION_TYPE = U
NORAD_CAT_ID   = 67555
ELEMENT_SET_NO = 999
REV_AT_EPOCH   = 347
BSTAR          = -.4684584E-2
MEAN_MOTION_DOT = -.828152E-2
MEAN_MOTION_DDOT = 0

CCSDS_OMM_VERS = 2.0
CREATION_DATE  = 
ORIGINATOR     = 

OBJECT_NAME    = MR-1
OBJECT_ID      = 2026-015A
CENTER_NAME    = EARTH
REF_FRAME      = TEME
TIME_SYSTEM    = UTC
MEAN_ELEMENT_THEORY = SGP/SGP4

EPOCH          = 2026-02-05T05:44:46.059072
MEAN_MOTION    = 13.52685979
ECCENTRICITY   = .00050675
INCLINATION    = 88.9986
RA_OF_ASC_NODE = 281.9598
ARG_OF_PERICENTER = 96.7794
MEAN_ANOMALY   = 263.3935

EPHEMERIS_TYPE = 0
CLASSIFICATION_TYPE = U
NORAD_CAT_ID   = 67556
ELEMENT_SET_NO = 999
REV_AT_EPOCH   = 187
BSTAR          = .11485865E-3
MEAN_MOTION_DOT = .88E-6
MEAN_MOTION_DDOT = 0

CCSDS_OMM_VERS = 2.0
CREATION_DATE  = 
ORIGINATOR     = 

OBJECT_NAME    = MR-2
OBJECT_ID      = 2026-015B
CENTER_NAME    = EARTH
REF_FRAME      = TEME
TIME_SYSTEM    = UTC
MEAN_ELEMENT_THEORY = SGP/SGP4

EPOCH          = 2026-02-05T03:58:36.383232
MEAN_MOTION    = 13.52660734
ECCENTRICITY   = .00051427
INCLINATION    = 88.9985
RA_OF_ASC_NODE = 281.9675
ARG_OF_PERICENTER = 95.9473
MEAN_ANOMALY   = 264.2265

EPHEMERIS_TYPE = 0
CLASSIFICATION_TYPE = U
NORAD_CAT_ID   = 67557
ELEMENT_SET_NO = 999
REV_AT_EPOCH   = 186
BSTAR          = .4197352E-4
MEAN_MOTION_DOT = .4E-6
MEAN_MOTION_DDOT = 0

CCSDS_OMM_VERS = 2.0
CREATION_DATE  = 
ORIGINATOR     = 

OBJECT_NAME    = ELECTRON R/B
OBJECT_ID      = 2026-015C
CENTER_NAME    = EARTH
REF_FRAME      = TEME
TIME_SYSTEM    = UTC
MEAN_ELEMENT_THEORY = SGP/SGP4

EPOCH          = 2026-02-05T02:19:08.464800
MEAN_MOTION    = 15.07936486
ECCENTRICITY   = .05371389
INCLINATION    = 89.0014
RA_OF_ASC_NODE = 281.5984
ARG_OF_PERICENTER = 220.4211
MEAN_ANOMALY   = 135.5949

EPHEMERIS_TYPE = 0
CLASSIFICATION_TYPE = U
NORAD_CAT_ID   = 67558
ELEMENT_SET_NO = 999
REV_AT_EPOCH   = 204
BSTAR          = .12878391E-2
MEAN_MOTION_DOT = .145012E-1
MEAN_MOTION_DDOT = -.707412E-6

CCSDS_OMM_VERS = 2.0
CREATION_DATE  = 
ORIGINATOR     = 

OBJECT_NAME    = ELECTRON KICK STAGE R/B
OBJECT_ID      = 2026-015D
CENTER_NAME    = EARTH
REF_FRAME      = TEME
TIME_SYSTEM    = UTC
MEAN_ELEMENT_THEORY = SGP/SGP4

EPOCH          = 2026-02-05T03:13:12.074592
MEAN_MOTION    = 14.66956483
ECCENTRICITY   = .05335893
INCLINATION    = 89.0513
RA_OF_ASC_NODE = 281.7440
ARG_OF_PERICENTER = 287.7038
MEAN_ANOMALY   = 66.6627

EPHEMERIS_TYPE = 0
CLASSIFICATION_TYPE = U
NORAD_CAT_ID   = 67559
ELEMENT_SET_NO = 999
REV_AT_EPOCH   = 201
BSTAR          = .12291377E-2
MEAN_MOTION_DOT = .72287E-3
MEAN_MOTION_DDOT = .362943E-6

